[{"OBJECT_NAME":"SPIP","OBJECT_ID":"2023-174AU","EPOCH":"2026-03-09T22:52:46.383168","MEAN_MOTION":15.26695413,"ECCENTRICITY":0.00100427,"INCLINATION":97.3901,"RA_OF_ASC_NODE":146.4534,"ARG_OF_PERICENTER":168.1112,"MEAN_ANOMALY":192.0366,"EPHEMERIS_TYPE":0,"CLASSIFICATION_TYPE":"U","NORAD_CAT_ID":58298,"ELEMENT_SET_NO":999,"REV_AT_EPOCH":12963,"BSTAR":0.00025731582,"MEAN_MOTION_DOT":6.692e-5,"MEAN_MOTION_DDOT":0},{"OBJECT_NAME":"STARLINK-31344","OBJECT_ID":"2024-044V","EPOCH":"2026-03-09T04:11:14.894016","MEAN_MOTION":15.27545255,"ECCENTRICITY":0.00011195,"INCLINATION":43.0007,"RA_OF_ASC_NODE":110.1981,"ARG_OF_PERICENTER":183.9546,"MEAN_ANOMALY":176.1297,"EPHEMERIS_TYPE":0,"CLASSIFICATION_TYPE":"U","NORAD_CAT_ID":59171,"ELEMENT_SET_NO":999,"REV_AT_EPOCH":11351,"BSTAR":0.00017849701,"MEAN_MOTION_DOT":4.648e-5,"MEAN_MOTION_DDOT":0}]
